ORBCOMM FM37 [-]        
1 33064U 08031E   24051.88927031  .00002216  00000+0  34845-3 0  9995
2 33064  48.4401 109.5112 0005060 113.1627  56.9507 14.75933276842711
ORBCOMM FM40 [-]        
1 33065U 08031F   24052.39827632  .00002677  00000+0  40332-3 0  9998
2 33065  48.4424  97.2141 0006347 124.1300 249.5086 14.77159088843267
VESSELSAT 1 [-]         
1 37840U 11058C   24052.51596023  .00000442  00000+0  96867-4 0  9990
2 37840  19.9613 127.9273 0013581 289.6521  70.2417 14.11117722638415
ORBCOMM FM109 [+]       
1 40086U 14040A   24052.47894106  .00001493  00000+0  37102-3 0  9991
2 40086  47.0034 128.1059 0002923 262.9156  97.1396 14.56338580510926
ORBCOMM FM107 [+]       
1 40087U 14040B   24052.51341283  .00001412  00000+0  35305-3 0  9994
2 40087  47.0042 128.8999 0002273 242.8883 117.1770 14.56315990510927
ORBCOMM FM106 [-]       
1 40088U 14040C   24051.63342838  .00002171  00000+0  41853-3 0  9992
2 40088  47.0620 352.0531 0018319 346.7684  13.2723 14.66636118512570
ORBCOMM FM111 [-]       
1 40089U 14040D   24051.84510055  .00003815  00000+0  50780-3 0  9999
2 40089  47.0026 261.3817 0032547  51.5274 308.8533 14.81116565518603
ORBCOMM FM104 [-]       
1 40090U 14040E   24052.40550364  .00001221  00000+0  31961-3 0  9990
2 40090  47.0047 157.4562 0017126 168.3586 191.7697 14.54887052510528
